NORAD_CAT_ID,OBJECT_NAME,OBJECT_TYPE,EPOCH,MEAN_MOTION,ECCENTRICITY,INCLINATION,RA_OF_ASC_NODE,ARG_OF_PERICENTER,MEAN_ANOMALY,BSTAR,MEAN_MOTION_DOT,MEAN_MOTION_DDOT,TLE_LINE0,TLE_LINE1,TLE_LINE2,SEMIMAJOR_AXIS,PERIOD,APOGEE,PERIGEE,DECAYED
52582.0,STARLINK-3886,PAYLOAD,2024-05-10 14:01:15,15.08828437,0.0001341,53.2167,238.3579,79.9172,280.1972,-0.00025624,-4.362e-05,0.0,0 STARLINK-3886,1 52582U 22051AY  24131.58420217 -.00004362  00000-0 -25624-3 0  9991,2 52582  53.2167 238.3579 0001341  79.9172 280.1972 15.08828437110725,6917.916,95.438,540.708,538.853,0.0
52582.0,STARLINK-3886,PAYLOAD,2024-05-11 13:52:01,15.08860276,0.0001345,53.2157,233.8979,82.4461,277.6684,0.0016244,0.00025673,0.0,0 STARLINK-3886,1 52582U 22051AY  24132.57779602  .00025673  00000-0  16244-2 0  9999,2 52582  53.2157 233.8979 0001345  82.4461 277.6684 15.08860276110944,6917.818,95.436,540.614,538.753,0.0
52582.0,STARLINK-3886,PAYLOAD,2024-05-12 13:42:50,15.08814682,0.0001304,53.2148,229.4377,98.4105,261.7035,0.00022848,3.348e-05,0.0,0 STARLINK-3886,1 52582U 22051AY  24133.57141841  .00003348  00000-0  22848-3 0  9991,2 52582  53.2148 229.4377 0001304  98.4105 261.7035 15.08814682111095,6917.958,95.439,540.725,538.921,0.0
52582.0,STARLINK-3886,PAYLOAD,2024-05-12 15:18:13,15.08814528,0.0001365,53.2149,229.1406,101.0676,259.0469,0.00038456,5.833e-05,0.0,0 STARLINK-3886,1 52582U 22051AY  24133.63766039  .00005833  00000-0  38456-3 0  9993,2 52582  53.2149 229.1406 0001365 101.0676 259.0469 15.08814528111031,6917.958,95.439,540.768,538.879,0.0
52582.0,STARLINK-3886,PAYLOAD,2024-05-13 11:58:15,15.08835255,0.0001233,53.2146,225.2751,106.7125,253.4003,0.00086438,0.00013494,0.0,0 STARLINK-3886,1 52582U 22051AY  24134.49879129  .00013494  00000-0  86438-3 0  9998,2 52582  53.2146 225.2751 0001233 106.7125 253.4003 15.08835255111169,6917.895,95.438,540.613,538.907,0.0
52582.0,STARLINK-3886,PAYLOAD,2024-05-14 11:49:02,15.08857321,0.0001313,53.2145,220.8152,104.834,255.2798,0.00067468,0.00010471,0.0,0 STARLINK-3886,1 52582U 22051AY  24135.49238531  .00010471  00000-0  67468-3 0  9999,2 52582  53.2145 220.8152 0001313 104.8340 255.2798 15.08857321111317,6917.827,95.436,540.601,538.784,0.0
52582.0,STARLINK-3886,PAYLOAD,2024-05-15 05:18:15,15.08866715,0.0002678,53.2142,217.5441,83.735,276.3947,0.00052411,8.069e-05,0.0,0 STARLINK-3886,1 52582U 22051AY  24136.22101735  .00008069  00000-0  52411-3 0  9998,2 52582  53.2142 217.5441 0002678  83.7350 276.3947 15.08866715111495,6917.799,95.436,541.516,537.811,0.0
52582.0,STARLINK-3886,PAYLOAD,2024-05-15 11:39:48,15.08850483,0.0001403,53.2153,216.3549,85.2936,274.8216,5.6877e-05,6.18e-06,0.0,0 STARLINK-3886,1 52582U 22051AY  24136.48597442  .00000618  00000-0  56877-4 0  9993,2 52582  53.2153 216.3549 0001403  85.2936 274.8216 15.08850483111537,6917.848,95.437,540.684,538.743,0.0
52582.0,STARLINK-3886,PAYLOAD,2024-05-16 11:30:35,15.08847451,0.0001626,53.2176,211.8921,102.6944,257.423,3.3631e-05,2.47e-06,0.0,0 STARLINK-3886,1 52582U 22051AY  24137.47957300  .00000247  00000-0  33631-4 0  9997,2 52582  53.2176 211.8921 0001626 102.6944 257.4230 15.08847451111619,6917.858,95.437,540.847,538.598,0.0
52582.0,STARLINK-3886,PAYLOAD,2024-05-16 14:41:21,15.08847941,0.0001862,53.2177,211.296,106.657,253.4627,0.00028141,4.194e-05,0.0,0 STARLINK-3886,1 52582U 22051AY  24137.61205419  .00004194  00000-0  28141-3 0  9994,2 52582  53.2177 211.2960 0001862 106.6570 253.4627 15.08847941111708,6917.856,95.437,541.009,538.433,0.0
52582.0,STARLINK-3886,PAYLOAD,2024-05-17 11:21:22,15.08842244,0.0001388,53.2159,207.4322,93.7985,266.3166,0.00016347,2.315e-05,0.0,0 STARLINK-3886,1 52582U 22051AY  24138.47317304  .00002315  00000-0  16347-3 0  9994,2 52582  53.2159 207.4322 0001388  93.7985 266.3166 15.08842244111832,6917.874,95.437,540.699,538.778,0.0
52582.0,STARLINK-3886,PAYLOAD,2024-05-18 11:12:09,15.0883463,0.0001356,53.2157,202.9739,90.9527,269.162,2.8063e-05,1.59e-06,0.0,0 STARLINK-3886,1 52582U 22051AY  24139.46677651  .00000159  00000-0  28063-4 0  9991,2 52582  53.2157 202.9739 0001356  90.9527 269.1620 15.08834630111980,6917.897,95.438,540.7,538.824,0.0
52582.0,STARLINK-3886,PAYLOAD,2024-05-18 20:44:28,15.08836722,0.0001434,53.2158,201.1907,91.0367,269.0789,-5.2419e-05,-1.122e-05,0.0,0 STARLINK-3886,1 52582U 22051AY  24139.86421610 -.00001122  00000-0 -52419-4 0  9992,2 52582  53.2158 201.1907 0001434  91.0367 269.0789 15.08836722111978,6917.89,95.438,540.747,538.763,0.0
52582.0,STARLINK-3886,PAYLOAD,2024-05-19 09:27:33,15.08831688,0.0001527,53.2167,198.8127,95.2625,264.8542,2.4281e-05,9.8e-07,0.0,0 STARLINK-3886,1 52582U 22051AY  24140.39414330  .00000098  00000-0  24281-4 0  9998,2 52582  53.2167 198.8127 0001527  95.2625 264.8542 15.08831688112056,6917.906,95.438,540.827,538.714,0.0
52582.0,STARLINK-3886,PAYLOAD,2024-05-20 12:29:07,15.08837484,0.0001604,53.2169,193.757,90.6483,269.4693,0.00014053,1.949e-05,0.0,0 STARLINK-3886,1 52582U 22051AY  24141.52022091  .00001949  00000-0  14053-3 0  9994,2 52582  53.2169 193.7570 0001604  90.6483 269.4693 15.08837484112295,6917.888,95.438,540.863,538.643,0.0
52582.0,STARLINK-3886,PAYLOAD,2024-05-21 09:09:07,15.08840938,0.0001528,53.2165,189.8852,85.8149,274.3018,0.00010274,1.348e-05,0.0,0 STARLINK-3886,1 52582U 22051AY  24142.38134062  .00001348  00000-0  10274-3 0  9995,2 52582  53.2165 189.8852 0001528  85.8149 274.3018 15.08840938112351,6917.878,95.437,540.8,538.685,0.0
52582.0,STARLINK-3886,PAYLOAD,2024-05-22 02:38:22,15.08843286,0.0001429,53.2158,186.6166,87.7213,272.3943,5.1495e-05,5.32e-06,0.0,0 STARLINK-3886,1 52582U 22051AY  24143.10997979  .00000532  00000-0  51495-4 0  9995,2 52582  53.2158 186.6166 0001429  87.7213 272.3943 15.08843286112533,6917.87,95.437,540.724,538.747,0.0
52582.0,STARLINK-3886,PAYLOAD,2024-05-22 10:35:17,15.08843572,0.0001424,53.2159,185.1298,86.4108,273.7047,4.1866e-05,3.78e-06,0.0,0 STARLINK-3886,1 52582U 22051AY  24143.44117905  .00000378  00000-0  41866-4 0  9994,2 52582  53.2159 185.1298 0001424  86.4108 273.7047 15.08843572112514,6917.869,95.437,540.72,538.749,0.0
52582.0,STARLINK-3886,PAYLOAD,2024-05-23 08:50:41,15.08841014,0.0001471,53.2161,180.9671,80.5104,279.6055,4.6131e-05,4.46e-06,0.0,0 STARLINK-3886,1 52582U 22051AY  24144.36853901  .00000446  00000-0  46131-4 0  9995,2 52582  53.2161 180.9671 0001471  80.5104 279.6055 15.08841014112724,6917.877,95.437,540.76,538.725,0.0
52582.0,STARLINK-3886,PAYLOAD,2024-05-24 08:41:28,15.08838117,0.0001391,53.216,176.5065,83.3609,276.7541,1.1545e-05,-1.04e-06,0.0,0 STARLINK-3886,1 52582U 22051AY  24145.36214100 -.00000104  00000-0  11545-4 0  9991,2 52582  53.2160 176.5065 0001391  83.3609 276.7541 15.08838117112800,6917.886,95.438,540.713,538.789,0.0
52582.0,STARLINK-3886,PAYLOAD,2024-05-25 05:21:29,15.08836934,0.0001265,53.2161,172.6417,73.6368,286.4763,3.299e-05,2.37e-06,0.0,0 STARLINK-3886,1 52582U 22051AY  24146.22326150  .00000237  00000-0  32990-4 0  9999,2 52582  53.2161 172.6417 0001265  73.6368 286.4763 15.08836934113005,6917.89,95.438,540.63,538.88,0.0
52582.0,STARLINK-3886,PAYLOAD,2024-05-25 08:32:15,15.08837699,0.0001303,53.2163,172.0467,88.6639,271.4503,3.6094e-05,2.87e-06,0.0,0 STARLINK-3886,1 52582U 22051AY  24146.35574047  .00000287  00000-0  36094-4 0  9997,2 52582  53.2163 172.0467 0001303  88.6639 271.4503 15.08837699112954,6917.887,95.438,540.654,538.851,0.0
52582.0,STARLINK-3886,PAYLOAD,2024-05-26 08:23:03,15.08833248,0.0001295,53.2163,167.5874,74.1106,286.0028,2.2012e-05,6.2e-07,0.0,0 STARLINK-3886,1 52582U 22051AY  24147.34934650  .00000062  00000-0  22012-4 0  9993,2 52582  53.2163 167.5874 0001295  74.1106 286.0028 15.08833248113179,6917.901,95.438,540.662,538.87,0.0
52582.0,STARLINK-3886,PAYLOAD,2024-05-26 17:55:22,15.08832172,0.0001294,53.2174,165.8129,69.4663,290.6468,-6.1175e-05,-1.261e-05,0.0,0 STARLINK-3886,1 52582U 22051AY  24147.74679306 -.00001261  00000-0 -61175-4 0  9998,2 52582  53.2174 165.8129 0001294  69.4663 290.6468 15.08832172113162,6917.904,95.438,540.664,538.874,0.0
52582.0,STARLINK-3886,PAYLOAD,2024-05-27 08:13:50,15.08834637,0.0001315,53.2163,163.126,94.0341,266.0801,2.9656e-05,1.84e-06,0.0,0 STARLINK-3886,1 52582U 22051AY  24148.34294750  .00000184  00000-0  29656-4 0  9990,2 52582  53.2163 163.1260 0001315  94.0341 266.0801 15.08834637113254,6917.897,95.438,540.671,538.852,0.0
52582.0,STARLINK-3886,PAYLOAD,2024-05-27 17:46:09,15.08834576,0.0001289,53.2162,161.3413,94.423,265.6909,3.599e-05,2.85e-06,0.0,0 STARLINK-3886,1 52582U 22051AY  24148.74038828  .00000285  00000-0  35990-4 0  9996,2 52582  53.2162 161.3413 0001289  94.4230 265.6909 15.08834576113384,6917.897,95.438,540.654,538.87,0.0
52582.0,STARLINK-3886,PAYLOAD,2024-05-28 09:40:00,15.0883872,0.0001222,53.2156,158.3661,92.1164,267.9968,7.2611e-05,8.68e-06,0.0,0 STARLINK-3886,1 52582U 22051AY  24149.40278490  .00000868  00000-0  72611-4 0  9999,2 52582  53.2156 158.3661 0001222  92.1164 267.9968 15.08838720113415,6917.884,95.438,540.595,538.904,0.0
52582.0,STARLINK-3886,PAYLOAD,2024-05-29 04:44:38,15.08839721,0.000123,53.2156,154.7977,91.0466,269.0667,3.3208e-05,2.41e-06,0.0,0 STARLINK-3886,1 52582U 22051AY  24150.19766596  .00000241  00000-0  33208-4 0  9990,2 52582  53.2156 154.7977 0001230  91.0466 269.0667 15.08839721113609,6917.881,95.438,540.597,538.895,0.0
52582.0,STARLINK-3886,PAYLOAD,2024-05-29 07:55:24,15.08840056,0.0001293,53.2161,154.2034,88.7859,271.3281,3.345e-05,2.45e-06,0.0,0 STARLINK-3886,1 52582U 22051AY  24150.33014596  .00000245  00000-0  33450-4 0  9995,2 52582  53.2161 154.2034 0001293  88.7859 271.3281 15.08840056113557,6917.88,95.438,540.64,538.851,0.0
52582.0,STARLINK-3886,PAYLOAD,2024-05-30 09:21:34,15.08843396,0.000137,53.2165,149.4462,84.2639,275.8509,3.7351e-05,3.07e-06,0.0,0 STARLINK-3886,1 52582U 22051AY  24151.38998366  .00000307  00000-0  37351-4 0  9990,2 52582  53.2165 149.4462 0001370  84.2639 275.8509 15.08843396113782,6917.87,95.437,540.683,538.787,0.0
